{
    "links": {
        "self": "http://www.neowsapp.com/rest/v1/neo/3394539?api_key=iIulBulltgU6a56xZRHN4H3l9WmuAYTsLGpBGhQ2"
    },
    "id": "3394539",
    "neo_reference_id": "3394539",
    "name": "(2007 VH184)",
    "designation": "2007 VH184",
    "nasa_jpl_url": "http://ssd.jpl.nasa.gov/sbdb.cgi?sstr=3394539",
    "absolute_magnitude_h": 21.9,
    "estimated_diameter": {
        "kilometers": {
            "estimated_diameter_min": 0.1108038821,
            "estimated_diameter_max": 0.2477650126
        },
        "meters": {
            "estimated_diameter_min": 110.8038821264,
            "estimated_diameter_max": 247.7650126055
        },
        "miles": {
            "estimated_diameter_min": 0.068850319,
            "estimated_diameter_max": 0.1539539936
        },
        "feet": {
            "estimated_diameter_min": 363.5298086356,
            "estimated_diameter_max": 812.8773639568
        }
    },
    "is_potentially_hazardous_asteroid": false,
    "close_approach_data": [
        {
            "close_approach_date": "2005-10-08",
            "close_approach_date_full": "2005-Oct-08 21:53",
            "epoch_date_close_approach": 1128808380000,
            "relative_velocity": {
                "kilometers_per_second": "3.1966993653",
                "kilometers_per_hour": "11508.1177150071",
                "miles_per_hour": "7150.6968101943"
            },
            "miss_distance": {
                "astronomical": "1.3706893399",
                "lunar": "533.1981532211",
                "kilometers": "205052205.680746013",
                "miles": "127413532.3660124594"
            },
            "orbiting_body": "Juptr"
        },
        {
            "close_approach_date": "2007-11-09",
            "close_approach_date_full": "2007-Nov-09 18:16",
            "epoch_date_close_approach": 1194632160000,
            "relative_velocity": {
                "kilometers_per_second": "9.0511193198",
                "kilometers_per_hour": "32584.0295514121",
                "miles_per_hour": "20246.4488065427"
            },
            "miss_distance": {
                "astronomical": "0.1042618609",
                "lunar": "40.5578638901",
                "kilometers": "15597352.312876283",
                "miles": "9691745.3150193854"
            },
            "orbiting_body": "Earth"
        }
    ],
    "orbital_data": {
        "orbit_id": "16",
        "orbit_determination_date": "2017-04-06 09:05:13",
        "first_observation_date": "2007-11-11",
        "last_observation_date": "2007-12-31",
        "data_arc_in_days": 50,
        "observations_used": 50,
        "orbit_uncertainty": "6",
        "minimum_orbit_intersection": ".0789179",
        "jupiter_tisserand_invariant": "3.154",
        "epoch_osculation": "2459000.5",
        "eccentricity": ".5931627088338893",
        "semi_major_axis": "2.568780610439299",
        "inclination": "3.856928167500531",
        "ascending_node_longitude": "138.1869057797868",
        "orbital_period": "1503.796080490097",
        "perihelion_distance": "1.045075745151152",
        "perihelion_argument": "248.4566255068996",
        "aphelion_distance": "4.092485475727445",
        "perihelion_time": "2458894.719022951885",
        "mean_anomaly": "25.32334817956872",
        "mean_motion": ".2393941603323462",
        "equinox": "J2000",
        "orbit_class": {
            "orbit_class_type": "AMO",
            "orbit_class_description": "Near-Earth asteroid orbits similar to that of 1221 Amor",
            "orbit_class_range": "1.017 AU < q (perihelion) < 1.3 AU"
        }
    },
    "is_sentry_object": false
}